{"type": "FeatureCollection", "features": [ {"type": "Feature", "properties": {"norad_id": 42969, "name": "SENTINEL-5P", "group": "resource", "lat": 66.77242995689093, "lon": -103.62935022098523, "alt_km": 819.8010679734598, "timestamp": "2025-12-04T19:33:59.288861+00:00", "meta": {"OBJECT_NAME": "SENTINEL-5P", "OBJECT_ID": "2017-064A", "EPOCH": "2025-12-04T07:24:13.371840", "MEAN_MOTION": 14.19514176, "ECCENTRICITY": 9.451e-05, "INCLINATION": 98.777, "RA_OF_ASC_NODE": 276.9679, "ARG_OF_PERICENTER": 85.9815, "MEAN_ANOMALY": 274.1469, "EPHEMERIS_TYPE": 0, "CLASSIFICATION_TYPE": "U", "NORAD_CAT_ID": 42969, "ELEMENT_SET_NO": 999, "REV_AT_EPOCH": 42191, "BSTAR": 0.00010612809, "MEAN_MOTION_DOT": 1.79e-06, "MEAN_MOTION_DDOT": 0}, "tle": {"line1": "1 42969U 17064A   25338.30848810  .00000179  00000+0  10613-3 0  9991", "line2": "2 42969  98.7770 276.9679 0000945  85.9815 274.1469 14.19514176421919"}}, "geometry": {"type": "Point", "coordinates": [-103.62935022098523, 66.77242995689093]}}, {"type": "Feature", "properties": {"norad_id": 42987, "name": "SKYSAT-C11", "group": "resource", "lat": 33.92651346324503, "lon": -58.860856923305576, "alt_km": 423.04904662306944, "timestamp": "2025-12-04T19:33:59.288871+00:00", "meta": {"OBJECT_NAME": "SKYSAT-C11", "OBJECT_ID": "2017-068A", "EPOCH": "2025-12-04T08:04:18.175008", "MEAN_MOTION": 15.46918857, "ECCENTRICITY": 9.371e-05, "INCLINATION": 97.4136, "RA_OF_ASC_NODE": 115.6241, "ARG_OF_PERICENTER": 111.7311, "MEAN_ANOMALY": 248.4038, "EPHEMERIS_TYPE": 0, "CLASSIFICATION_TYPE": "U", "NORAD_CAT_ID": 42987, "ELEMENT_SET_NO": 999, "REV_AT_EPOCH": 45301, "BSTAR": 0.00086033511, "MEAN_MOTION_DOT": 0.00043399, "MEAN_MOTION_DDOT": 0}, "tle": {"line1": "1 42987U 17068A   25338.33632147  .00043399  00000+0  86034-3 0  9993", "line2": "2 42987  97.4136 115.6241 0000937 111.7311 248.4038 15.46918857453012"}}, "geometry": {"type": "Point", "coordinates": [-58.860856923305576, 33.92651346324503]}}, {"type": "Feature", "properties": {"norad_id": 42988, "name": "SKYSAT-C10", "group": "resource", "lat": -57.62805766834145, "lon": 121.5191443545606, "alt_km": 480.6036818215998, "timestamp": "2025-12-04T19:33:59.288880+00:00", "meta": {"OBJECT_NAME": "SKYSAT-C10", "OBJECT_ID": "2017-068B", "EPOCH": "2025-12-03T21:52:31.155744", "MEAN_MOTION": 15.32008568, "ECCENTRICITY": 0.0005511, "INCLINATION": 97.4257, "RA_OF_ASC_NODE": 108.7403, "ARG_OF_PERICENTER": 118.6562, "MEAN_ANOMALY": 241.5234, "EPHEMERIS_TYPE": 0, "CLASSIFICATION_TYPE": "U", "NORAD_CAT_ID": 42988, "ELEMENT_SET_NO": 999, "REV_AT_EPOCH": 45244, "BSTAR": 0.00065499, "MEAN_MOTION_DOT": 0.00020203, "MEAN_MOTION_DDOT": 0}, "tle": {"line1": "1 42988U 17068B   25337.91147171  .00020203  00000+0  65499-3 0  9996", "line2": "2 42988  97.4257 108.7403 0005511 118.6562 241.5234 15.32008568452449"}}, "geometry": {"type": "Point", "coordinates": [121.5191443545606, -57.62805766834145]}}, {"type": "Feature", "properties": {"norad_id": 42989, "name": "SKYSAT-C9", "group": "resource", "lat": 35.117370409906506, "lon": 103.75120430217152, "alt_km": 454.9114404485208, "timestamp": "2025-12-04T19:33:59.288889+00:00", "meta": {"OBJECT_NAME": "SKYSAT-C9", "OBJECT_ID": "2017-068C", "EPOCH": "2025-12-04T06:54:08.013600", "MEAN_MOTION": 15.35714834, "ECCENTRICITY": 0.00106594, "INCLINATION": 97.4184, "RA_OF_ASC_NODE": 108.4773, "ARG_OF_PERICENTER": 115.2431, "MEAN_ANOMALY": 244.9919, "EPHEMERIS_TYPE": 0, "CLASSIFICATION_TYPE": "U", "NORAD_CAT_ID": 42989, "ELEMENT_SET_NO": 999, "REV_AT_EPOCH": 45278, "BSTAR": 0.00078064575, "MEAN_MOTION_DOT": 0.00027146, "MEAN_MOTION_DDOT": 0}, "tle": {"line1": "1 42989U 17068C   25338.28759275  .00027146  00000+0  78065-3 0  9998", "line2": "2 42989  97.4184 108.4773 0010659 115.2431 244.9919 15.35714834452780"}}, "geometry": {"type": "Point", "coordinates": [103.75120430217152, 35.117370409906506]}}, {"type": "Feature", "properties": {"norad_id": 42990, "name": "SKYSAT-C8", "group": "resource", "lat": 81.00738678152442, "lon": -15.690832725681776, "alt_km": 460.20041910068903, "timestamp": "2025-12-04T19:33:59.288898+00:00", "meta": {"OBJECT_NAME": "SKYSAT-C8", "OBJECT_ID": "2017-068D", "EPOCH": "2025-12-04T06:37:04.445760", "MEAN_MOTION": 15.32632243, "ECCENTRICITY": 0.00020939, "INCLINATION": 97.4277, "RA_OF_ASC_NODE": 108.2414, "ARG_OF_PERICENTER": 18.0592, "MEAN_ANOMALY": 342.0724, "EPHEMERIS_TYPE": 0, "CLASSIFICATION_TYPE": "U", "NORAD_CAT_ID": 42990, "ELEMENT_SET_NO": 999, "REV_AT_EPOCH": 45241, "BSTAR": 0.00072857745, "MEAN_MOTION_DOT": 0.00022924, "MEAN_MOTION_DDOT": 0}, "tle": {"line1": "1 42990U 17068D   25338.27574590  .00022924  00000+0  72858-3 0  9997", "line2": "2 42990  97.4277 108.2414 0002093  18.0592 342.0724 15.32632243452410"}}, "geometry": {"type": "Point", "coordinates": [-15.690832725681776, 81.00738678152442]}}, {"type": "Feature", "properties": {"norad_id": 42991, "name": "SKYSAT-C7", "group": "resource", "lat": -32.526876555439486, "lon": 114.6033403374736, "alt_km": 478.0835389429558, "timestamp": "2025-12-04T19:33:59.288911+00:00", "meta": {"OBJECT_NAME": "SKYSAT-C7", "OBJECT_ID": "2017-068E", "EPOCH": "2025-12-04T07:10:09.301728", "MEAN_MOTION": 15.32041519, "ECCENTRICITY": 0.00078916, "INCLINATION": 97.4284, "RA_OF_ASC_NODE": 109.3124, "ARG_OF_PERICENTER": 83.5266, "MEAN_ANOMALY": 276.6874, "EPHEMERIS_TYPE": 0, "CLASSIFICATION_TYPE": "U", "NORAD_CAT_ID": 42991, "ELEMENT_SET_NO": 999, "REV_AT_EPOCH": 45248, "BSTAR": 0.00074278857, "MEAN_MOTION_DOT": 0.00022965, "MEAN_MOTION_DDOT": 0}, "tle": {"line1": "1 42991U 17068E   25338.29871877  .00022965  00000+0  74279-3 0  9992", "line2": "2 42991  97.4284 109.3124 0007891  83.5266 276.6874 15.32041519452480"}}, "geometry": {"type": "Point", "coordinates": [114.6033403374736, -32.526876555439486]}}, {"type": "Feature", "properties": {"norad_id": 42992, "name": "SKYSAT-C6", "group": "resource", "lat": 70.59658147840791, "lon": -47.97245085927523, "alt_km": 461.8023972444025, "timestamp": "2025-12-04T19:33:59.288926+00:00", "meta": {"OBJECT_NAME": "SKYSAT-C6", "OBJECT_ID": "2017-068F", "EPOCH": "2025-12-03T21:08:22.276032", "MEAN_MOTION": 15.31198589, "ECCENTRICITY": 0.0005146, "INCLINATION": 97.4317, "RA_OF_ASC_NODE": 109.3389, "ARG_OF_PERICENTER": 107.6681, "MEAN_ANOMALY": 252.5122, "EPHEMERIS_TYPE": 0, "CLASSIFICATION_TYPE": "U", "NORAD_CAT_ID": 42992, "ELEMENT_SET_NO": 999, "REV_AT_EPOCH": 45240, "BSTAR": 0.00062176, "MEAN_MOTION_DOT": 0.00018692, "MEAN_MOTION_DDOT": 0}, "tle": {"line1": "1 42992U 17068F   25337.88081338  .00018692  00000+0  62176-3 0  9997", "line2": "2 42992  97.4317 109.3389 0005146 107.6681 252.5122 15.31198589452401"}}, "geometry": {"type": "Point", "coordinates": [-47.97245085927523, 70.59658147840791]}}, {"type": "Feature", "properties": {"norad_id": 43111, "name": "CARTOSAT-2F", "group": "resource", "lat": -20.719524628529154, "lon": -146.24949015430212, "alt_km": 512.2551584509447, "timestamp": "2025-12-04T19:33:59.288944+00:00", "meta": {"OBJECT_NAME": "CARTOSAT-2F", "OBJECT_ID": "2018-004A", "EPOCH": "2025-12-04T07:37:16.441824", "MEAN_MOTION": 15.19374717, "ECCENTRICITY": 0.000122, "INCLINATION": 97.4332, "RA_OF_ASC_NODE": 36.0913, "ARG_OF_PERICENTER": 185.7698, "MEAN_ANOMALY": 174.3523, "EPHEMERIS_TYPE": 0, "CLASSIFICATION_TYPE": "U", "NORAD_CAT_ID": 43111, "ELEMENT_SET_NO": 999, "REV_AT_EPOCH": 43774, "BSTAR": 8.8432e-05, "MEAN_MOTION_DOT": 1.802e-05, "MEAN_MOTION_DDOT": 0}, "tle": {"line1": "1 43111U 18004A   25338.31755141  .00001802  00000+0  88432-4 0  9990", "line2": "2 43111  97.4332  36.0913 0001220 185.7698 174.3523 15.19374717437746"}}, "geometry": {"type": "Point", "coordinates": [-146.24949015430212, -20.719524628529154]}}, {"type": "Feature", "properties": {"norad_id": 43259, "name": "GAOFEN-1 02", "group": "resource", "lat": 73.60692844646552, "lon": -114.51707800953268, "alt_km": 634.2595522517395, "timestamp": "2025-12-04T19:33:59.288954+00:00", "meta": {"OBJECT_NAME": "GAOFEN-1 02", "OBJECT_ID": "2018-031A", "EPOCH": "2025-12-04T07:42:37.022112", "MEAN_MOTION": 14.76453909, "ECCENTRICITY": 0.00013199, "INCLINATION": 98.0818, "RA_OF_ASC_NODE": 36.1069, "ARG_OF_PERICENTER": 252.6927, "MEAN_ANOMALY": 107.4138, "EPHEMERIS_TYPE": 0, "CLASSIFICATION_TYPE": "U", "NORAD_CAT_ID": 43259, "ELEMENT_SET_NO": 999, "REV_AT_EPOCH": 41394, "BSTAR": 0.00028663175, "MEAN_MOTION_DOT": 1.943e-05, "MEAN_MOTION_DDOT": 0}, "tle": {"line1": "1 43259U 18031A   25338.32126183  .00001943  00000+0  28663-3 0  9997", "line2": "2 43259  98.0818  36.1069 0001319 252.6927 107.4138 14.76453909413944"}}, "geometry": {"type": "Point", "coordinates": [-114.51707800953268, 73.60692844646552]}}, {"type": "Feature", "properties": {"norad_id": 43260, "name": "GAOFEN-1 03", "group": "resource", "lat": -40.11961297247743, "lon": -150.39718151242235, "alt_km": 648.4454399265942, "timestamp": "2025-12-04T19:33:59.288963+00:00", "meta": {"OBJECT_NAME": "GAOFEN-1 03", "OBJECT_ID": "2018-031B", "EPOCH": "2025-12-04T07:11:05.250048", "MEAN_MOTION": 14.76410284, "ECCENTRICITY": 0.0002569, "INCLINATION": 98.0811, "RA_OF_ASC_NODE": 35.963, "ARG_OF_PERICENTER": 355.6508, "MEAN_ANOMALY": 4.4679, "EPHEMERIS_TYPE": 0, "CLASSIFICATION_TYPE": "U", "NORAD_CAT_ID": 43260, "ELEMENT_SET_NO": 999, "REV_AT_EPOCH": 41393, "BSTAR": 0.00028625097, "MEAN_MOTION_DOT": 1.938e-05, "MEAN_MOTION_DDOT": 0}, "tle": {"line1": "1 43260U 18031B   25338.29936632  .00001938  00000+0  28625-3 0  9995", "line2": "2 43260  98.0811  35.9630 0002569 355.6508   4.4679 14.76410284413931"}}, "geometry": {"type": "Point", "coordinates": [-150.39718151242235, -40.11961297247743]}}]}